CCSDS_OEM_VERS = 2.0
CREATION_DATE  = 2024-09-06T18:24:43.669
ORIGINATOR     = NASA/JSC/FOD/TOPO

META_START
OBJECT_NAME          = ISS
OBJECT_ID            = 1998-067-A
CENTER_NAME          = Earth
REF_FRAME            = EME2000
TIME_SYSTEM          = UTC
START_TIME           = 2024-09-06T13:15:17.835
USEABLE_START_TIME   = 2024-09-06T13:15:17.835
USEABLE_STOP_TIME    = 2024-09-21T13:15:17.835
STOP_TIME            = 2024-09-21T13:15:17.835
META_STOP

COMMENT Source: This file was produced by the TOPO office within FOD at JSC.
COMMENT Units are in kg and m^2
COMMENT MASS=473493.20
COMMENT DRAG_AREA=1569.69
COMMENT DRAG_COEFF=3.40
COMMENT SOLAR_RAD_AREA=0.00
COMMENT SOLAR_RAD_COEFF=0.00
COMMENT Orbits start at the ascending node epoch
COMMENT ISS first asc. node: EPOCH = 2024-09-06T13:46:20.030 $ ORBIT = 3117 $ LAN(DEG) = 79.44488
COMMENT ISS last asc. node : EPOCH = 2024-09-21T12:59:34.143 $ ORBIT = 3349 $ LAN(DEG) = 2.33893
COMMENT Begin sequence of events
COMMENT TRAJECTORY EVENT SUMMARY:
COMMENT 
COMMENT |       EVENT        |       TIG        | ORB |   DV    |   HA    |   HP    |
COMMENT |                    |       GMT        |     |   M/S   |   KM    |   KM    |
COMMENT |                    |                  |     |  (F/S)  |  (NM)   |  (NM)   |
COMMENT =============================================================================
COMMENT  CFT_Undock            250:22:04:00.000             0.0     425.4     415.2
COMMENT                                                    (0.0)   (229.7)   (224.2)
COMMENT 
COMMENT  72S_Launch            255:16:23:20.000             0.0     426.1     413.3
COMMENT                                                    (0.0)   (230.1)   (223.1)
COMMENT 
COMMENT  72S_Dock              255:19:33:37.000             0.0     426.2     413.2
COMMENT                                                    (0.0)   (230.1)   (223.1)
COMMENT 
COMMENT =============================================================================
COMMENT End sequence of events
2024-09-12T11:13:37.000 4860.809135479670 1752.653006893260 4415.126535328080 0.56744536970574 6.86935916205066 -3.33696141491350
2024-09-12T11:17:37.000 4818.964926571320 3317.711024606080 3463.331014245670 -0.91405536700630 6.09332081186855 -4.54623734476040
2024-09-12T11:21:37.000 4427.366936201270 4641.971590828560 2259.457859675570 -2.32940081165251 4.87493073169614 -5.42475280214954
2024-09-12T11:25:37.000 3714.410875919470 5629.303223418760 891.115217940764 -3.57567385809872 3.30273721962151 -5.90841772453614
2024-09-12T11:29:37.000 2731.881235068260 6208.104316694700 -542.091178723339 -4.56211953204043 1.49137247933917 -5.96200859296858
2024-09-12T11:33:37.000 1551.175448779150 6336.584472755020 -1935.877212290580 -5.21711741013833 -0.42696487232270 -5.58202483464630
2024-09-12T11:37:37.000 258.022918208184 6005.780667148010 -3188.966496602870 -5.49357393172589 -2.31266384641956 -4.79682281406797
2024-09-12T11:41:37.000 -1053.831972867400 5240.074047346500 -4210.489463873000 -5.37214189655732 -4.02919984547112 -3.66416671090150
2024-09-12T11:45:37.000 -2289.451654046730 4095.240367128040 -4926.523807663100 -4.86222384306680 -5.45302236655347 -2.26659544644237
2024-09-12T11:49:37.000 -3359.520985529670 2654.274356402000 -5285.311648108720 -4.00090141493115 -6.48214838958241 -0.70510460894406
2024-09-12T11:53:37.000 -4186.657855059550 1021.380280176170 -5260.831566915460 -2.84993386910191 -7.04274474019765 0.90803646004479
2024-09-12T11:57:37.000 -4710.856852129970 -685.398547327910 -4854.619574204480 -1.49156644386210 -7.09399077636915 2.45675109530903
2024-09-12T12:01:37.000 -4893.778871826060 -2342.497029743280 -4095.734121012630 -0.02310579752942 -6.63099514553904 3.82906938334906
2024-09-12T12:05:37.000 -4721.611391068760 -3829.593575861960 -3038.843043913970 1.44951360813636 -5.68565570724031 4.92482482629783
2024-09-12T12:09:37.000 -4206.274595363330 -5038.319422358490 -1760.484230843950 2.81907971925699 -4.32521266765853 5.66311473429052
2024-09-12T12:13:37.000 -3384.780661964890 -5880.293452934610 -353.644984847703 3.98503714564493 -2.64806159972874 5.98871819313345
2024-09-12T12:17:37.000 -2316.686629037000 -6293.821971811480 1079.017797212580 4.86134510306013 -0.77682093643591 5.87688819530622
2024-09-12T12:21:37.000 -1079.744637197700 -6248.622477992900 2432.815817087220 5.38341943217943 1.15109287635140 5.33556728619119
2024-09-12T12:25:37.000 235.883847834020 -5748.105765471060 3608.854299940180 5.51309026737209 2.99413562638031 4.40476814682116
2024-09-12T12:29:37.000 1534.354083256470 -4829.055870115820 4521.392182495810 5.24144655222241 4.61753821457028 3.15334977233748
2024-09-12T12:33:37.000 2721.244993288090 -3558.742587427350 5104.130753441140 4.58905719956742 5.90358679641023 1.67333000807767
2024-09-12T12:37:37.000 3710.415961278330 -2029.816827754850 5314.923765463470 3.60389782426634 6.75965981817600 0.07274963382575
2024-09-12T12:41:37.000 4430.183558569600 -353.499005806018 5138.706827092620 2.35770914770316 7.12450682156557 -1.53212769012551
2024-09-12T12:45:37.000 4828.421020203570 1348.478036952500 4588.477679660140 0.94074002152259 6.97223613257700 -3.02508009457638
2024-09-12T12:49:37.000 4876.261893852060 2952.595880485940 3704.320288841160 -0.54451822521314 6.31396442106096 -4.29791190762065
2024-09-12T12:53:37.000 4570.206088270630 4342.421879858150 2550.552163082980 -1.99043566955883 5.19733017686215 -5.25809371969997
2024-09-12T12:57:37.000 3932.435284637250 5417.058467645180 1211.126179059910 -3.29192085221964 3.70343170612886 -5.83558047334178
2024-09-12T13:01:37.000 3009.264966158070 6098.545141903710 -216.459354144024 -4.35423435603379 1.94114814056349 -5.98827978805491
2024-09-12T13:05:37.000 1867.775219847130 6337.600528300450 -1628.312344242350 -5.10018004101711 0.03908396416886 -5.70536202834375
2024-09-12T13:09:37.000 590.867864021500 6117.208426931080 -2921.801535813780 -5.47592785184867 -1.86421031225707 -5.00806800989436
2024-09-12T13:13:37.000 -728.850200847219 5453.750488172440 -4003.080996494120 -5.45489407697357 -3.63073113496952 -3.94784574717134
2024-09-12T13:17:37.000 -1995.840036922990 4395.634070238640 -4793.870880669150 -5.03928984840297 -5.13320302213776 -2.60208491958884
2024-09-12T13:21:37.000 -3118.501435057570 3019.628031586910 -5236.994383255370 -4.25945166697693 -6.26388494013117 -1.06817501531139
2024-09-12T13:25:37.000 -4015.663552345250 1425.280870333180 -5300.364449583240 -3.17142479170016 -6.94174373410216 0.54343796879181
2024-09-12T13:29:37.000 -4622.308114109820 -272.162775808090 -4979.200732752910 -1.85298664199407 -7.11770963757393 2.11691612845077
2024-09-12T13:33:37.000 -4894.183945629960 -1949.869333253600 -4296.412358459440 -0.39848374443998 -6.77803501094462 3.53864108536917
2024-09-12T13:37:37.000 -4811.063810643370 -3486.113898926410 -3301.120025389940 1.08736498592695 -5.94574210756765 4.70511512082046
2024-09-12T13:41:37.000 -4378.388242297960 -4769.036349282260 -2065.317194162870 2.49662159738982 -4.67968264522919 5.53041050152098
2024-09-12T13:45:37.000 -3627.111134950530 -5704.894791613670 -678.819382585489 3.72598277448263 -3.07116285505456 5.95299331786476
2024-09-12T13:49:37.000 -2611.612411595350 -6225.138009241890 757.257978265843 4.68481635731979 -1.23751887052162 5.94089935658911
2024-09-12T13:53:37.000 -1405.771367085820 -6291.642973512380 2137.986129226550 5.30235794883075 0.68665299476896 5.49457194817816
2024-09-12T13:57:37.000 -97.483784678288 -5899.626116451660 3362.472823842390 5.53333128544937 2.55995509704110 4.64699475711248
2024-09-12T14:01:37.000 1217.910294864440 -5077.943911369320 4341.396340687070 5.36133388286999 4.24525859472612 3.46090553645450
2024-09-12T14:05:37.000 2444.708062438970 -3886.805652260930 5003.573306821390 4.79968035089739 5.62006629871161 2.02371407189406
2024-09-12T14:09:37.000 3493.840998570920 -2413.158428102920 5301.066638997770 3.88991067199906 6.58530568165527 0.44045400243786
2024-09-12T14:13:37.000 4289.266889145040 -764.250828227619 5212.503540466220 2.69833946299030 7.07180337575270 -1.17383229832035
2024-09-12T14:17:37.000 4773.370193427690 940.134185473237 4744.523458759270 1.31131920291172 7.04487533270285 -2.70212587611214
2024-09-12T14:21:37.000 4911.073945956990 2576.291928492890 3931.258470918970 -0.17079656815762 6.50670966948755 -4.03369951704482
2024-09-12T14:25:37.000 4692.366431020890 4025.478027393330 2831.876465079370 -1.64069911801961 5.49624005840746 -5.07186969728124
2024-09-12T14:29:37.000 4133.078259099280 5182.485828323670 1526.361561179200 -2.99163144163776 4.08674817347272 -5.74093980556841
2024-09-12T14:33:37.000 3273.812399301830 5963.349970100060 109.740752775338 -4.12523580949843 2.38090016026598 -5.99209609663469
2024-09-12T14:37:37.000 2177.007243780450 6311.535710951750 -1314.876665656570 -4.95906011503410 0.50319273805229 -5.80723966904040
2024-09-12T14:41:37.000 922.341504473698 6202.080325585210 -2643.896054437650 -5.43280495102375 -1.40947871262933 -5.20044053611786
2024-09-12T14:45:37.000 -399.155927094796 5643.317107477840 -3780.850270806330 -5.51272354300674 -3.21829085683936 -4.21657961397178
2024-09-12T14:49:37.000 -1691.776419258530 4676.098675987820 -4643.389250833990 -5.19373487451870 -4.79272047226699 -2.92762590859218
2024-09-12T14:53:37.000 -2862.044996554200 3370.669063524060 -5169.139174238800 -4.49934014229677 -6.01977245447108 -1.42701952287574
2024-09-12T14:57:37.000 -3825.365943946150 1821.512940175710 -5320.055166829160 -3.47954053078945 -6.81154222207240 0.17713557477813
2024-09-12T15:01:37.000 -4511.976933585820 140.613998629569 -5085.061182437660 -2.20725567198479 -7.11091417767963 1.76947446859655
2024-09-12T15:05:37.000 -4871.897133667880 -1550.442384078380 -4480.857035944670 -0.77347980645208 -6.89546383177722 3.23521988884625
